<?xml version="1.0" encoding="UTF-8"?>
<gpx creator="https://gpx.studio" version="1.1" schemaLocation="http://www.topografix.com/GPX/1/1 http://www.topografix.com/GPX/1/1/gpx.xsd http://www.garmin.com/xmlschemas/GpxExtensions/v3 http://www.garmin.com/xmlschemas/GpxExtensionsv3.xsd http://www.garmin.com/xmlschemas/TrackPointExtension/v1 http://www.garmin.com/xmlschemas/TrackPointExtensionv1.xsd http://www.garmin.com/xmlschemas/PowerExtension/v1 http://www.garmin.com/xmlschemas/PowerExtensionv1.xsd http://www.topografix.com/GPX/gpx_style/0/2 http://www.topografix.com/GPX/gpx_style/0/2/gpx_style.xsd" xmlns="http://www.topografix.com/GPX/1/1" xmlns:xsi="http://www.w3.org/2001/XMLSchema-instance" xsi:schemaLocation="http://www.topografix.com/GPX/1/1 http://www.topografix.com/GPX/1/1/gpx.xsd http://www.garmin.com/xmlschemas/GpxExtensions/v3 http://www.garmin.com/xmlschemas/GpxExtensionsv3.xsd http://www.garmin.com/xmlschemas/TrackPointExtension/v1 http://www.garmin.com/xmlschemas/TrackPointExtensionv1.xsd http://www.garmin.com/xmlschemas/PowerExtension/v1 http://www.garmin.com/xmlschemas/PowerExtensionv1.xsd http://www.topografix.com/GPX/gpx_style/0/2 http://www.topografix.com/GPX/gpx_style/0/2/gpx_style.xsd" xmlns:gpxtpx="http://www.garmin.com/xmlschemas/TrackPointExtension/v1" xmlns:gpxx="http://www.garmin.com/xmlschemas/GpxExtensions/v3" xmlns:gpxpx="http://www.garmin.com/xmlschemas/PowerExtension/v1" xmlns:gpx_style="http://www.topografix.com/GPX/gpx_style/0/2">
  <metadata>
    <name>Transcat - Etapa 06 L&apos;Hospitalet de l&apos;Infant - Cambrils v8</name>
    <desc>Evita platja, N-340, camí més directe</desc>
    <author>
      <name>gpx.studio</name>
      <link href="https://gpx.studio"/>
    </author>
  </metadata>
  <wpt lat="40.999249" lon="0.912938">
    <ele>36.668950942401715</ele>
    <name>🟢🚉L&apos;Hospitalet de l&apos;Infant🧭NE</name>
    <sym>Ground Transportation</sym>
  </wpt>
  <wpt lat="40.999803" lon="0.917117">
    <ele>26.65997653424203</ele>
    <name>2 🔄3a↗️🧭NE</name>
    <cmt>🔄Rotonda. Sortim per la 3a a la ↗️dreta 🧭NE pel carrer de l&apos;Oregal</cmt>
    <desc>🔄Rotonda. Sortim per la 3a a la ↗️dreta 🧭NE pel carrer de l&apos;Oregal</desc>
    <sym>Rotonda</sym>
  </wpt>
  <wpt lat="41.001017" lon="0.920176">
    <ele>30.84630588365483</ele>
    <name>3 ╬⬅️🧭N</name>
    <cmt>╬ Cruïlla. ⬅️Esquerra🧭N</cmt>
    <desc>╬ Cruïlla. ⬅️Esquerra🧭N</desc>
    <sym>Crossing</sym>
  </wpt>
  <wpt lat="41.003931" lon="0.918513">
    <ele>35.599857019481234</ele>
    <name>4 🔄2a ↗️🧭NW ︵</name>
    <cmt>🔄Rotonda. Sortir per la 2a a la ↗️dreta 🧭NW per ︵ creuar vies i autopista</cmt>
    <desc>🔄Rotonda. Sortir per la 2a a la ↗️dreta 🧭NW per ︵ creuar vies i autopista</desc>
    <sym>Rotonda</sym>
  </wpt>
  <wpt lat="41.006853" lon="0.915369">
    <ele>44.23016312625292</ele>
    <name>5 ╣⬅️</name>
    <cmt>╣Desviació a ⬅️l&apos;esquerra</cmt>
    <desc>╣Desviació a ⬅️l&apos;esquerra</desc>
    <sym>Crossing</sym>
  </wpt>
  <wpt lat="41.008395" lon="0.912365">
    <ele>59.82977030868734</ele>
    <name>6 ╦⬅️🚶↗️🚶↗️🧭NW</name>
    <cmt>╦ Cruïlla. Girem⬅️esquerra fins el🚶pas de vianants.
Sortim per l&apos;acera a la ↗️dreta i creuem el següent🚶pas de vianants i seguim a la nostra ↗️dreta 🧭NW paral·lels a la Carreterade L&apos;Hospitalet - Mora</cmt>
    <desc>╦ Cruïlla. Girem⬅️esquerra fins el🚶pas de vianants.
Sortim per l&apos;acera a la ↗️dreta i creuem el següent🚶pas de vianants i seguim a la nostra ↗️dreta 🧭NW paral·lels a la Carreterade L&apos;Hospitalet - Mora</desc>
    <sym>Crossing</sym>
  </wpt>
  <wpt lat="41.00876" lon="0.909798">
    <ele>65.0603343350815</ele>
    <name>7 ↗️</name>
    <cmt>Ens incorporem a la sortida de la C-44 a la ↗️dreta</cmt>
    <desc>Ens incorporem a la sortida de la C-44 a la ↗️dreta</desc>
    <sym>Crossing</sym>
  </wpt>
  <wpt lat="41.014795" lon="0.907855">
    <ele>86.779740091638</ele>
    <name>8 ↖️↗️</name>
    <cmt>Ens incorporem al camí asfaltat a la nostra ↖️esquerra i tot seguit ens mantenim a la ↗️dreta sense creuar.</cmt>
    <desc>Ens incorporem al camí asfaltat a la nostra ↖️esquerra i tot seguit ens mantenim a la ↗️dreta sense creuar.</desc>
    <sym>Crossing</sym>
  </wpt>
  <wpt lat="41.0238" lon="0.909478">
    <ele>88.12321051081875</ele>
    <name>9 ‼️╠➡️120m➡️</name>
    <cmt>‼️Atenció. ╠ Desviació per corriol poc marcat a la ➡️dreta. Seguir corriol 120m i arribarem a l&apos;asfalt. Llavors prenem el carrer avall a la ➡️dreta</cmt>
    <desc>‼️Atenció. ╠ Desviació per corriol poc marcat a la ➡️dreta. Seguir corriol 120m i arribarem a l&apos;asfalt. Llavors prenem el carrer avall a la ➡️dreta</desc>
    <sym>Crossing</sym>
  </wpt>
  <wpt lat="41.024055" lon="0.910088">
    <ele>89.14822540315909</ele>
    <name>10 Inici asfalt 🧭SE</name>
    <sym>Crossing</sym>
  </wpt>
  <wpt lat="41.022971" lon="0.911236">
    <ele>81.19208249510396</ele>
    <name>11 ╣⬅️70m🔄⬆️</name>
    <cmt>╣Desviació a ⬅️l&apos;esquerra i en 70m 🔄mini-rotonda que seguirem tot ⬆️recte</cmt>
    <desc>╣Desviació a ⬅️l&apos;esquerra i en 70m 🔄mini-rotonda que seguirem tot ⬆️recte</desc>
    <sym>Crossing</sym>
  </wpt>
  <wpt lat="41.028471" lon="0.917586">
    <ele>77.76760340152191</ele>
    <name>12 ╦⬅️↗️</name>
    <cmt>╦ Cruïlla. Agafem l&apos;Avinguda del Casalot a ⬅️l&apos;esquerra tot mantenint-nos a ↗️dretes</cmt>
    <desc>╦ Cruïlla. Agafem l&apos;Avinguda del Casalot a ⬅️l&apos;esquerra tot mantenint-nos a ↗️dretes</desc>
    <sym>Crossing</sym>
  </wpt>
  <wpt lat="41.029155" lon="0.919145">
    <ele>70.16516735176828</ele>
    <name>13 ☕🔄2a↗️</name>
    <cmt>☕Bar a banda esquerra i 🔄Rotonda. Sortir per la 2a a la ↗️dreta pel Camí del Casalot</cmt>
    <desc>☕Bar a banda esquerra i 🔄Rotonda. Sortir per la 2a a la ↗️dreta pel Camí del Casalot</desc>
    <sym>Rotonda</sym>
  </wpt>
  <wpt lat="41.03607" lon="0.925834">
    <ele>71.5438510378347</ele>
    <name>14 ↖️︵↗️</name>
    <cmt>Seguim per ↖️l&apos;esquerra per ︵ creuar AP-7 i tot seguit ens desviem per la ↗️dreta</cmt>
    <desc>Seguim per ↖️l&apos;esquerra per ︵ creuar AP-7 i tot seguit ens desviem per la ↗️dreta</desc>
    <sym>Crossing</sym>
  </wpt>
  <wpt lat="41.037397" lon="0.925843">
    <ele>71.38534399215202</ele>
    <name>15 ╠ ↘️╦⬅️🧭E</name>
    <cmt>╠ Desviem per gir tancat a la ↘️dreta per camí de terra. Fi asfalt. Arribem a una ╦ cruïlla i anem a ⬅️l&apos;esquerra 🧭E</cmt>
    <desc>╠ Desviem per gir tancat a la ↘️dreta per camí de terra. Fi asfalt. Arribem a una ╦ cruïlla i anem a ⬅️l&apos;esquerra 🧭E</desc>
    <sym>Crossing</sym>
  </wpt>
  <wpt lat="41.040069" lon="0.953204">
    <ele>39.74495195037555</ele>
    <name>16 ↗️</name>
    <cmt>Ens incorporem a camí més important per la ↗️dreta</cmt>
    <desc>Ens incorporem a camí més important per la ↗️dreta</desc>
    <sym>Crossing</sym>
  </wpt>
  <wpt lat="41.043465" lon="0.959063">
    <ele>40.108592244238054</ele>
    <name>17 ╦➡️︵</name>
    <cmt>╦ Cruïlla amb camí asfaltat. Anem a la ➡️dreta pel ︵ pont sobre l&apos;autopista</cmt>
    <desc>╦ Cruïlla amb camí asfaltat. Anem a la ➡️dreta pel ︵ pont sobre l&apos;autopista</desc>
    <sym>Crossing</sym>
  </wpt>
  <wpt lat="41.042852" lon="0.959871">
    <ele>38.01036465985351</ele>
    <name>18 ╬⬅️🧭NE</name>
    <cmt>╬ Cruïlla. Anem a ⬅️l&apos;esquerra per seguir paral·lels a l&apos;AP-7 🧭NE per camí sense asfaltar</cmt>
    <desc>╬ Cruïlla. Anem a ⬅️l&apos;esquerra per seguir paral·lels a l&apos;AP-7 🧭NE per camí sense asfaltar</desc>
    <sym>Crossing</sym>
  </wpt>
  <wpt lat="41.055425" lon="0.988079">
    <ele>20.465210434287826</ele>
    <name>20 🚶</name>
    <cmt>Tram delicat i molt mal marcat, potser és necessari fer-lo a 🚶peu</cmt>
    <desc>Tram delicat i molt mal marcat, potser és necessari fer-lo a 🚶peu</desc>
    <sym>Alert</sym>
  </wpt>
  <wpt lat="41.050101" lon="0.975006">
    <ele>36.737115247193955</ele>
    <name>19 ╦↘️︵↖️🧭NE</name>
    <cmt>╦ Cruïlla amb camí més important. Gir tancat a ↘️dreta per passar per sobre del pont de les vies ︵ i resseguir a ↖️esquerres per seguir paral·lels a les vies 🧭NE</cmt>
    <desc>╦ Cruïlla amb camí més important. Gir tancat a ↘️dreta per passar per sobre del pont de les vies ︵ i resseguir a ↖️esquerres per seguir paral·lels a les vies 🧭NE</desc>
    <sym>Crossing</sym>
  </wpt>
  <wpt lat="41.055351" lon="0.995546">
    <ele>20.757400289214107</ele>
    <name>21 ↗️🧭S</name>
    <cmt>Amb precaució trànsit creuem T-323 i seguim pel carril bici asfaltat a la nostra ↗️dreta 🧭S</cmt>
    <desc>Amb precaució trànsit creuem T-323 i seguim pel carril bici asfaltat a la nostra ↗️dreta 🧭S</desc>
    <sym>Crossing</sym>
  </wpt>
  <wpt lat="41.050593" lon="0.999584">
    <ele>13.113428817397748</ele>
    <name>22 ↖️</name>
    <cmt>Seguim carril bici ↖️ per l&apos;esquerra. Restaurant</cmt>
    <desc>Seguim carril bici ↖️ per l&apos;esquerra. Restaurant</desc>
    <sym>Restaurant</sym>
  </wpt>
  <wpt lat="41.049641" lon="1.001722">
    <ele>8.142119878417603</ele>
    <name>23 ︵ ╬⬅️🧭NE</name>
    <cmt>Just passat sota el ︵pont de les vies, ╬ cruïlla. Desviem a ⬅️l&apos;esquerra paral·lels a la via 🧭NE. 
Recte Camping Oasis Mar</cmt>
    <desc>Just passat sota el ︵pont de les vies, ╬ cruïlla. Desviem a ⬅️l&apos;esquerra paral·lels a la via 🧭NE. 
Recte Camping Oasis Mar</desc>
    <sym>Crossing</sym>
  </wpt>
  <wpt lat="41.056399" lon="1.016625">
    <ele>10.117179274480739</ele>
    <name>24 ╦⬅️︵➡️ ➡️︵</name>
    <cmt>╦ Intersecció. Passar sota el ︵pont de les vies, a la nostra ⬅️esquerra i ➡️dreta, creuar Riera Riudecanyes i a la ➡️dreta sota el ︵pont de les vies</cmt>
    <desc>╦ Intersecció. Passar sota el ︵pont de les vies, a la nostra ⬅️esquerra i ➡️dreta, creuar Riera Riudecanyes i a la ➡️dreta sota el ︵pont de les vies</desc>
    <sym>Crossing</sym>
  </wpt>
  <wpt lat="41.056591" lon="1.01804">
    <ele>9.795624775248356</ele>
    <name>25 ╦↗️🚲</name>
    <cmt>╦ Cruïlla. Ens incorporem per la ↗️ al 🚲carril bici</cmt>
    <desc>╦ Cruïlla. Ens incorporem per la ↗️ al 🚲carril bici</desc>
    <sym>Bike Lane</sym>
  </wpt>
  <wpt lat="41.052573" lon="1.023246">
    <ele>5.219736941951195</ele>
    <name>26 🏖️🚲🌳🛝</name>
    <cmt>Arribem a la 🏖️Platja. Seguim pel carril bici del Passeig Marítim
En pocs metres anem trobant 🌳ombres, bancs i un 🛝minúscul</cmt>
    <desc>Arribem a la 🏖️Platja. Seguim pel carril bici del Passeig Marítim
En pocs metres anem trobant 🌳ombres, bancs i un 🛝minúscul</desc>
    <sym>Beach</sym>
  </wpt>
  <wpt lat="41.057427" lon="1.031666">
    <ele>2.0193708518986364</ele>
    <name>27 🛝</name>
    <cmt>🛝Parc infantil</cmt>
    <desc>🛝Parc infantil</desc>
    <sym>Park</sym>
  </wpt>
  <wpt lat="41.064753" lon="1.05295">
    <ele>8.200000000000728</ele>
    <name>28🚳↗️</name>
    <cmt>🚳Fi carril bici. Ens incorporem al carrer per la ↗️dreta. Podem anar per l&apos;acera si anem amb nens</cmt>
    <desc>🚳Fi carril bici. Ens incorporem al carrer per la ↗️dreta. Podem anar per l&apos;acera si anem amb nens</desc>
    <sym>Crossing</sym>
  </wpt>
  <wpt lat="41.064281" lon="1.054861">
    <ele>0</ele>
    <name>29 ⬅️</name>
    <cmt>Agafem el carrer a ⬅️l&apos;esquerra 🧭N per l&apos;acera cap a 🚉 l&apos;estació</cmt>
    <desc>Agafem el carrer a ⬅️l&apos;esquerra 🧭N per l&apos;acera cap a 🚉 l&apos;estació</desc>
    <sym>Crossing</sym>
  </wpt>
  <wpt lat="41.072252" lon="1.055169">
    <ele>16.550003102013743</ele>
    <name>🏁Final etapa 6 ╬ Cambrils</name>
    <cmt>╬ Cruïlla:
⬆️ A 🚉Estació Cambrils en 1.33km
➡️ A Etapa 7: Cambrils - Vila-seca</cmt>
    <desc>╬ Cruïlla:
⬆️ A 🚉Estació Cambrils en 1.33km
➡️ A Etapa 7: Cambrils - Vila-seca</desc>
    <sym>Crossing</sym>
  </wpt>
  <trk>
    <name>Transcat - Etapa 06 L&apos;Hospitalet de l&apos;Infant - Cambrils v8</name>
    <trkseg>
      <trkpt lat="40.999229" lon="0.912923">
        <ele>37</ele>
      </trkpt>
      <trkpt lat="40.99963" lon="0.913262">
        <ele>35.25</ele>
      </trkpt>
      <trkpt lat="40.999688" lon="0.913315">
        <ele>35</ele>
      </trkpt>
      <trkpt lat="40.999747" lon="0.913393">
        <ele>34.75</ele>
      </trkpt>
      <trkpt lat="40.99977" lon="0.914688">
        <ele>32.5</ele>
      </trkpt>
      <trkpt lat="40.999783" lon="0.915407">
        <ele>31.5</ele>
      </trkpt>
      <trkpt lat="40.999791" lon="0.915851">
        <ele>31</ele>
      </trkpt>
      <trkpt lat="40.999795" lon="0.916518">
        <ele>27.5</ele>
      </trkpt>
      <trkpt lat="40.999796" lon="0.916641">
        <ele>26.75</ele>
      </trkpt>
      <trkpt lat="40.999798" lon="0.916986">
        <ele>27.25</ele>
      </trkpt>
      <trkpt lat="40.9998" lon="0.917258">
        <ele>28</ele>
      </trkpt>
      <trkpt lat="40.999732" lon="0.917283">
        <ele>27.75</ele>
      </trkpt>
      <trkpt lat="40.999674" lon="0.917335">
        <ele>27.75</ele>
      </trkpt>
      <trkpt lat="40.999665" lon="0.917325">
        <ele>27.25</ele>
      </trkpt>
      <trkpt lat="40.999664" lon="0.917324">
        <ele>27.5</ele>
      </trkpt>
      <trkpt lat="40.999674" lon="0.917335">
        <ele>27.75</ele>
      </trkpt>
      <trkpt lat="40.999642" lon="0.917387">
        <ele>27.75</ele>
      </trkpt>
      <trkpt lat="40.99962" lon="0.917448">
        <ele>27.75</ele>
      </trkpt>
      <trkpt lat="40.99961" lon="0.917514">
        <ele>28</ele>
      </trkpt>
      <trkpt lat="40.999621" lon="0.917631">
        <ele>28</ele>
      </trkpt>
      <trkpt lat="40.999668" lon="0.917732">
        <ele>28.25</ele>
      </trkpt>
      <trkpt lat="40.999734" lon="0.917793">
        <ele>28.5</ele>
      </trkpt>
      <trkpt lat="40.999813" lon="0.917818">
        <ele>28.75</ele>
      </trkpt>
      <trkpt lat="40.999826" lon="0.917818">
        <ele>28.75</ele>
      </trkpt>
      <trkpt lat="40.999884" lon="0.917841">
        <ele>29</ele>
      </trkpt>
      <trkpt lat="40.999954" lon="0.917914">
        <ele>29.25</ele>
      </trkpt>
      <trkpt lat="41.000014" lon="0.918015">
        <ele>29.5</ele>
      </trkpt>
      <trkpt lat="41.000034" lon="0.918059">
        <ele>29.75</ele>
      </trkpt>
      <trkpt lat="41.000055" lon="0.918106">
        <ele>29.75</ele>
      </trkpt>
      <trkpt lat="41.00009" lon="0.918158">
        <ele>30</ele>
      </trkpt>
      <trkpt lat="41.000312" lon="0.918641">
        <ele>30</ele>
      </trkpt>
      <trkpt lat="41.00039" lon="0.918811">
        <ele>30</ele>
      </trkpt>
      <trkpt lat="41.000465" lon="0.918974">
        <ele>29.75</ele>
      </trkpt>
      <trkpt lat="41.000635" lon="0.919339">
        <ele>29.75</ele>
      </trkpt>
      <trkpt lat="41.000717" lon="0.919519">
        <ele>29.75</ele>
      </trkpt>
      <trkpt lat="41.000788" lon="0.919674">
        <ele>29.75</ele>
      </trkpt>
      <trkpt lat="41.000938" lon="0.920003">
        <ele>30.5</ele>
      </trkpt>
      <trkpt lat="41.001019" lon="0.920186">
        <ele>31</ele>
      </trkpt>
      <trkpt lat="41.001075" lon="0.920195">
        <ele>31.25</ele>
      </trkpt>
      <trkpt lat="41.001136" lon="0.920176">
        <ele>31.5</ele>
      </trkpt>
      <trkpt lat="41.002465" lon="0.919382">
        <ele>35</ele>
      </trkpt>
      <trkpt lat="41.003817" lon="0.918569">
        <ele>35</ele>
      </trkpt>
      <trkpt lat="41.004" lon="0.918473">
        <ele>35</ele>
      </trkpt>
      <trkpt lat="41.004029" lon="0.918485">
        <ele>34.75</ele>
      </trkpt>
      <trkpt lat="41.004063" lon="0.918485">
        <ele>34.75</ele>
      </trkpt>
      <trkpt lat="41.004105" lon="0.918466">
        <ele>34.75</ele>
      </trkpt>
      <trkpt lat="41.004116" lon="0.918454">
        <ele>34.75</ele>
      </trkpt>
      <trkpt lat="41.004116" lon="0.918454">
        <ele>34.75</ele>
      </trkpt>
      <trkpt lat="41.00412" lon="0.918451">
        <ele>34.75</ele>
      </trkpt>
      <trkpt lat="41.00414" lon="0.918429">
        <ele>35</ele>
      </trkpt>
      <trkpt lat="41.004161" lon="0.918386">
        <ele>35.25</ele>
      </trkpt>
      <trkpt lat="41.00417" lon="0.918315">
        <ele>36</ele>
      </trkpt>
      <trkpt lat="41.004288" lon="0.918098">
        <ele>35</ele>
      </trkpt>
      <trkpt lat="41.004315" lon="0.918028">
        <ele>35</ele>
      </trkpt>
      <trkpt lat="41.004412" lon="0.91785">
        <ele>34.5</ele>
      </trkpt>
      <trkpt lat="41.004697" lon="0.917278">
        <ele>35</ele>
      </trkpt>
      <trkpt lat="41.004905" lon="0.916865">
        <ele>37.75</ele>
      </trkpt>
      <trkpt lat="41.005037" lon="0.91664">
        <ele>38</ele>
      </trkpt>
      <trkpt lat="41.005167" lon="0.916473">
        <ele>38.25</ele>
      </trkpt>
      <trkpt lat="41.005272" lon="0.916371">
        <ele>38.5</ele>
      </trkpt>
      <trkpt lat="41.005453" lon="0.916241">
        <ele>39</ele>
      </trkpt>
      <trkpt lat="41.005646" lon="0.916093">
        <ele>39</ele>
      </trkpt>
      <trkpt lat="41.005996" lon="0.915746">
        <ele>42</ele>
      </trkpt>
      <trkpt lat="41.006149" lon="0.915634">
        <ele>42.25</ele>
      </trkpt>
      <trkpt lat="41.00635" lon="0.915528">
        <ele>42.75</ele>
      </trkpt>
      <trkpt lat="41.006629" lon="0.915407">
        <ele>43</ele>
      </trkpt>
      <trkpt lat="41.006862" lon="0.915368">
        <ele>43.5</ele>
      </trkpt>
      <trkpt lat="41.006858" lon="0.915095">
        <ele>47</ele>
      </trkpt>
      <trkpt lat="41.006869" lon="0.914919">
        <ele>48.25</ele>
      </trkpt>
      <trkpt lat="41.006903" lon="0.914683">
        <ele>49</ele>
      </trkpt>
      <trkpt lat="41.00694" lon="0.91453">
        <ele>49.5</ele>
      </trkpt>
      <trkpt lat="41.006991" lon="0.914372">
        <ele>50</ele>
      </trkpt>
      <trkpt lat="41.007076" lon="0.914192">
        <ele>50.75</ele>
      </trkpt>
      <trkpt lat="41.007193" lon="0.914004">
        <ele>51.75</ele>
      </trkpt>
      <trkpt lat="41.007326" lon="0.913821">
        <ele>52.75</ele>
      </trkpt>
      <trkpt lat="41.008419" lon="0.912326">
        <ele>60.5</ele>
      </trkpt>
      <trkpt lat="41.007975" lon="0.911763">
        <ele>60.5</ele>
      </trkpt>
      <trkpt lat="41.007975" lon="0.911763">
        <ele>60.543389392243824</ele>
      </trkpt>
      <trkpt lat="41.0079635068071" lon="0.9115576889018655">
        <ele>61.407475644397465</ele>
      </trkpt>
      <trkpt lat="41.008065224739795" lon="0.9113729712339875">
        <ele>62.252662207699366</ele>
      </trkpt>
      <trkpt lat="41.008065224739795" lon="0.9113729712339875">
        <ele>62.252662207699366</ele>
      </trkpt>
      <trkpt lat="41.008065224739795" lon="0.9113729712339875">
        <ele>62.252662207699366</ele>
      </trkpt>
      <trkpt lat="41.00800118013379" lon="0.91123817726006">
        <ele>62.20126518334836</ele>
      </trkpt>
      <trkpt lat="41.00800118013379" lon="0.91123817726006">
        <ele>62.20126518334836</ele>
      </trkpt>
      <trkpt lat="41.00825763165623" lon="0.9107487080380995">
        <ele>62.651551400684376</ele>
      </trkpt>
      <trkpt lat="41.00851408317866" lon="0.910259238816139">
        <ele>63.61438825891875</ele>
      </trkpt>
      <trkpt lat="41.00876728811298" lon="0.909775966106281">
        <ele>65.0972582174003</ele>
      </trkpt>
      <trkpt lat="41.008836" lon="0.909667">
        <ele>65.46060243146584</ele>
      </trkpt>
      <trkpt lat="41.008836" lon="0.909667">
        <ele>66.5</ele>
      </trkpt>
      <trkpt lat="41.008836" lon="0.909667">
        <ele>66</ele>
      </trkpt>
      <trkpt lat="41.008901" lon="0.90962">
        <ele>66.5</ele>
      </trkpt>
      <trkpt lat="41.009169" lon="0.909256">
        <ele>69.25</ele>
      </trkpt>
      <trkpt lat="41.009284" lon="0.909018">
        <ele>71</ele>
      </trkpt>
      <trkpt lat="41.009373" lon="0.908845">
        <ele>72</ele>
      </trkpt>
      <trkpt lat="41.009729" lon="0.908327">
        <ele>75</ele>
      </trkpt>
      <trkpt lat="41.009851" lon="0.908161">
        <ele>75.25</ele>
      </trkpt>
      <trkpt lat="41.009982" lon="0.907952">
        <ele>75.75</ele>
      </trkpt>
      <trkpt lat="41.01005" lon="0.907884">
        <ele>76</ele>
      </trkpt>
      <trkpt lat="41.010125" lon="0.907867">
        <ele>76</ele>
      </trkpt>
      <trkpt lat="41.010525" lon="0.907911">
        <ele>76.25</ele>
      </trkpt>
      <trkpt lat="41.010904" lon="0.907918">
        <ele>76.5</ele>
      </trkpt>
      <trkpt lat="41.011123" lon="0.907869">
        <ele>77</ele>
      </trkpt>
      <trkpt lat="41.011347" lon="0.907777">
        <ele>77.5</ele>
      </trkpt>
      <trkpt lat="41.01233" lon="0.907656">
        <ele>80.25</ele>
      </trkpt>
      <trkpt lat="41.013062" lon="0.907699">
        <ele>81</ele>
      </trkpt>
      <trkpt lat="41.013174" lon="0.907677">
        <ele>81.25</ele>
      </trkpt>
      <trkpt lat="41.013238" lon="0.907592">
        <ele>81.5</ele>
      </trkpt>
      <trkpt lat="41.013551" lon="0.907654">
        <ele>82</ele>
      </trkpt>
      <trkpt lat="41.014248" lon="0.907775">
        <ele>83.75</ele>
      </trkpt>
      <trkpt lat="41.014852" lon="0.907876">
        <ele>86.75</ele>
      </trkpt>
      <trkpt lat="41.014924" lon="0.907809">
        <ele>87.5</ele>
      </trkpt>
      <trkpt lat="41.015" lon="0.907763">
        <ele>88.25</ele>
      </trkpt>
      <trkpt lat="41.015294" lon="0.907679">
        <ele>89.5</ele>
      </trkpt>
      <trkpt lat="41.015454" lon="0.907664">
        <ele>90</ele>
      </trkpt>
      <trkpt lat="41.015918" lon="0.907726">
        <ele>91</ele>
      </trkpt>
      <trkpt lat="41.016472" lon="0.907767">
        <ele>91.25</ele>
      </trkpt>
      <trkpt lat="41.017118" lon="0.907768">
        <ele>90.75</ele>
      </trkpt>
      <trkpt lat="41.01717" lon="0.907775">
        <ele>90.5</ele>
      </trkpt>
      <trkpt lat="41.018224" lon="0.907882">
        <ele>91.75</ele>
      </trkpt>
      <trkpt lat="41.018906" lon="0.907994">
        <ele>92.5</ele>
      </trkpt>
      <trkpt lat="41.019777" lon="0.908137">
        <ele>91.25</ele>
      </trkpt>
      <trkpt lat="41.0199" lon="0.908173">
        <ele>91</ele>
      </trkpt>
      <trkpt lat="41.020191" lon="0.908327">
        <ele>90</ele>
      </trkpt>
      <trkpt lat="41.020504" lon="0.908431">
        <ele>89.5</ele>
      </trkpt>
      <trkpt lat="41.020682" lon="0.90849">
        <ele>89.5</ele>
      </trkpt>
      <trkpt lat="41.020815" lon="0.908503">
        <ele>89.5</ele>
      </trkpt>
      <trkpt lat="41.02088" lon="0.908492">
        <ele>89.75</ele>
      </trkpt>
      <trkpt lat="41.021028" lon="0.908468">
        <ele>90.25</ele>
      </trkpt>
      <trkpt lat="41.021171" lon="0.908466">
        <ele>90.75</ele>
      </trkpt>
      <trkpt lat="41.021295" lon="0.908496">
        <ele>91</ele>
      </trkpt>
      <trkpt lat="41.021728" lon="0.908646">
        <ele>91.25</ele>
      </trkpt>
      <trkpt lat="41.022092" lon="0.908841">
        <ele>89.25</ele>
      </trkpt>
      <trkpt lat="41.0224" lon="0.908915">
        <ele>88</ele>
      </trkpt>
      <trkpt lat="41.022819" lon="0.909046">
        <ele>86</ele>
      </trkpt>
      <trkpt lat="41.023356" lon="0.909308">
        <ele>84</ele>
      </trkpt>
      <trkpt lat="41.023752" lon="0.909451">
        <ele>86.75</ele>
      </trkpt>
      <trkpt lat="41.023824" lon="0.909504">
        <ele>87.25</ele>
      </trkpt>
      <trkpt lat="41.023854" lon="0.909685">
        <ele>86.75</ele>
      </trkpt>
      <trkpt lat="41.023886" lon="0.909766">
        <ele>87</ele>
      </trkpt>
      <trkpt lat="41.024094" lon="0.910162">
        <ele>89</ele>
      </trkpt>
      <trkpt lat="41.023896" lon="0.910414">
        <ele>87</ele>
      </trkpt>
      <trkpt lat="41.022939" lon="0.911271">
        <ele>80.25</ele>
      </trkpt>
      <trkpt lat="41.023187" lon="0.911808">
        <ele>84.25</ele>
      </trkpt>
      <trkpt lat="41.023255" lon="0.91189">
        <ele>84.75</ele>
      </trkpt>
      <trkpt lat="41.023341" lon="0.911934">
        <ele>85.25</ele>
      </trkpt>
      <trkpt lat="41.023436" lon="0.911973">
        <ele>85.75</ele>
      </trkpt>
      <trkpt lat="41.023495" lon="0.91203">
        <ele>86.25</ele>
      </trkpt>
      <trkpt lat="41.023564" lon="0.91214">
        <ele>86.75</ele>
      </trkpt>
      <trkpt lat="41.023619" lon="0.912282">
        <ele>87</ele>
      </trkpt>
      <trkpt lat="41.023673" lon="0.91238">
        <ele>87.25</ele>
      </trkpt>
      <trkpt lat="41.023732" lon="0.912453">
        <ele>87.25</ele>
      </trkpt>
      <trkpt lat="41.024147" lon="0.912971">
        <ele>87.75</ele>
      </trkpt>
      <trkpt lat="41.02424" lon="0.913076">
        <ele>87.75</ele>
      </trkpt>
      <trkpt lat="41.025317" lon="0.914282">
        <ele>87.75</ele>
      </trkpt>
      <trkpt lat="41.026194" lon="0.915166">
        <ele>88.5</ele>
      </trkpt>
      <trkpt lat="41.026451" lon="0.915312">
        <ele>87.75</ele>
      </trkpt>
      <trkpt lat="41.026755" lon="0.915414">
        <ele>87.5</ele>
      </trkpt>
      <trkpt lat="41.027184" lon="0.915452">
        <ele>87.25</ele>
      </trkpt>
      <trkpt lat="41.027601" lon="0.915591">
        <ele>86.75</ele>
      </trkpt>
      <trkpt lat="41.028066" lon="0.915881">
        <ele>86.25</ele>
      </trkpt>
      <trkpt lat="41.028374" lon="0.916251">
        <ele>84.75</ele>
      </trkpt>
      <trkpt lat="41.02854" lon="0.916562">
        <ele>83.5</ele>
      </trkpt>
      <trkpt lat="41.028467" lon="0.917356">
        <ele>79.25</ele>
      </trkpt>
      <trkpt lat="41.028492" lon="0.917695">
        <ele>77.5</ele>
      </trkpt>
      <trkpt lat="41.028635" lon="0.917707">
        <ele>77</ele>
      </trkpt>
      <trkpt lat="41.028757" lon="0.917763">
        <ele>76.5</ele>
      </trkpt>
      <trkpt lat="41.028818" lon="0.917788">
        <ele>76.5</ele>
      </trkpt>
      <trkpt lat="41.02886" lon="0.917842">
        <ele>76</ele>
      </trkpt>
      <trkpt lat="41.028902" lon="0.917895">
        <ele>75.75</ele>
      </trkpt>
      <trkpt lat="41.028921" lon="0.917935">
        <ele>75.5</ele>
      </trkpt>
      <trkpt lat="41.028948" lon="0.917965">
        <ele>75.5</ele>
      </trkpt>
      <trkpt lat="41.028981" lon="0.917982">
        <ele>75.25</ele>
      </trkpt>
      <trkpt lat="41.029061" lon="0.918078">
        <ele>74.75</ele>
      </trkpt>
      <trkpt lat="41.029154" lon="0.918211">
        <ele>74.25</ele>
      </trkpt>
      <trkpt lat="41.029204" lon="0.918324">
        <ele>73.75</ele>
      </trkpt>
      <trkpt lat="41.02926" lon="0.918504">
        <ele>72.75</ele>
      </trkpt>
      <trkpt lat="41.029267" lon="0.918665">
        <ele>72</ele>
      </trkpt>
      <trkpt lat="41.029199" lon="0.919001">
        <ele>70.75</ele>
      </trkpt>
      <trkpt lat="41.029156" lon="0.919096">
        <ele>70.25</ele>
      </trkpt>
      <trkpt lat="41.029151" lon="0.91914">
        <ele>70</ele>
      </trkpt>
      <trkpt lat="41.029146" lon="0.919184">
        <ele>69.75</ele>
      </trkpt>
      <trkpt lat="41.029112" lon="0.919228">
        <ele>69.75</ele>
      </trkpt>
      <trkpt lat="41.029104" lon="0.919257">
        <ele>69.75</ele>
      </trkpt>
      <trkpt lat="41.029103" lon="0.919289">
        <ele>69.75</ele>
      </trkpt>
      <trkpt lat="41.029109" lon="0.919321">
        <ele>69.5</ele>
      </trkpt>
      <trkpt lat="41.029122" lon="0.919349">
        <ele>69.5</ele>
      </trkpt>
      <trkpt lat="41.02914" lon="0.919371">
        <ele>69.5</ele>
      </trkpt>
      <trkpt lat="41.029163" lon="0.919384">
        <ele>69.25</ele>
      </trkpt>
      <trkpt lat="41.029187" lon="0.919388">
        <ele>69.25</ele>
      </trkpt>
      <trkpt lat="41.029231" lon="0.919368">
        <ele>69.5</ele>
      </trkpt>
      <trkpt lat="41.029248" lon="0.919347">
        <ele>69.5</ele>
      </trkpt>
      <trkpt lat="41.029366" lon="0.91932">
        <ele>69.5</ele>
      </trkpt>
      <trkpt lat="41.029794" lon="0.919333">
        <ele>69.75</ele>
      </trkpt>
      <trkpt lat="41.030013" lon="0.919388">
        <ele>70</ele>
      </trkpt>
      <trkpt lat="41.030358" lon="0.919419">
        <ele>70.25</ele>
      </trkpt>
      <trkpt lat="41.030978" lon="0.919688">
        <ele>70.5</ele>
      </trkpt>
      <trkpt lat="41.031225" lon="0.919869">
        <ele>70.25</ele>
      </trkpt>
      <trkpt lat="41.03157" lon="0.920121">
        <ele>69.5</ele>
      </trkpt>
      <trkpt lat="41.032115" lon="0.920634">
        <ele>71.75</ele>
      </trkpt>
      <trkpt lat="41.032926" lon="0.921532">
        <ele>73.75</ele>
      </trkpt>
      <trkpt lat="41.033119" lon="0.921757">
        <ele>74.25</ele>
      </trkpt>
      <trkpt lat="41.033252" lon="0.922029">
        <ele>74.25</ele>
      </trkpt>
      <trkpt lat="41.033288" lon="0.922446">
        <ele>73</ele>
      </trkpt>
      <trkpt lat="41.033373" lon="0.922703">
        <ele>72.75</ele>
      </trkpt>
      <trkpt lat="41.033639" lon="0.923152">
        <ele>73</ele>
      </trkpt>
      <trkpt lat="41.034268" lon="0.92381">
        <ele>72.75</ele>
      </trkpt>
      <trkpt lat="41.034352" lon="0.923807">
        <ele>73.25</ele>
      </trkpt>
      <trkpt lat="41.034752" lon="0.923794">
        <ele>75.5</ele>
      </trkpt>
      <trkpt lat="41.035224" lon="0.923746">
        <ele>77</ele>
      </trkpt>
      <trkpt lat="41.035292" lon="0.923749">
        <ele>77</ele>
      </trkpt>
      <trkpt lat="41.035355" lon="0.923808">
        <ele>76.75</ele>
      </trkpt>
      <trkpt lat="41.035792" lon="0.924317">
        <ele>75.5</ele>
      </trkpt>
      <trkpt lat="41.035974" lon="0.924612">
        <ele>75</ele>
      </trkpt>
      <trkpt lat="41.03601" lon="0.924852">
        <ele>74.5</ele>
      </trkpt>
      <trkpt lat="41.035974" lon="0.925349">
        <ele>73.25</ele>
      </trkpt>
      <trkpt lat="41.03603181248931" lon="0.9256553465928495">
        <ele>72.5049934857424</ele>
      </trkpt>
      <trkpt lat="41.036031" lon="0.925654">
        <ele>72.5</ele>
      </trkpt>
      <trkpt lat="41.036071" lon="0.925863">
        <ele>72</ele>
      </trkpt>
      <trkpt lat="41.036252" lon="0.925798">
        <ele>72.5</ele>
      </trkpt>
      <trkpt lat="41.03693" lon="0.925574">
        <ele>73.5</ele>
      </trkpt>
      <trkpt lat="41.037037" lon="0.925521">
        <ele>74</ele>
      </trkpt>
      <trkpt lat="41.037037" lon="0.925521">
        <ele>73.75</ele>
      </trkpt>
      <trkpt lat="41.037062" lon="0.925509">
        <ele>74</ele>
      </trkpt>
      <trkpt lat="41.037429" lon="0.925893">
        <ele>71.75</ele>
      </trkpt>
      <trkpt lat="41.037304" lon="0.925876">
        <ele>72</ele>
      </trkpt>
      <trkpt lat="41.037095" lon="0.925718">
        <ele>73</ele>
      </trkpt>
      <trkpt lat="41.036872" lon="0.925789">
        <ele>72.75</ele>
      </trkpt>
      <trkpt lat="41.036906" lon="0.926136">
        <ele>71.5</ele>
      </trkpt>
      <trkpt lat="41.0371" lon="0.927107">
        <ele>68.75</ele>
      </trkpt>
      <trkpt lat="41.037217" lon="0.927724">
        <ele>67.75</ele>
      </trkpt>
      <trkpt lat="41.037226" lon="0.927885">
        <ele>67.25</ele>
      </trkpt>
      <trkpt lat="41.037272" lon="0.928432">
        <ele>65.25</ele>
      </trkpt>
      <trkpt lat="41.037272" lon="0.92843">
        <ele>66.25</ele>
      </trkpt>
      <trkpt lat="41.037328" lon="0.929081">
        <ele>65.25</ele>
      </trkpt>
      <trkpt lat="41.037406" lon="0.929647">
        <ele>62.75</ele>
      </trkpt>
      <trkpt lat="41.037469" lon="0.930367">
        <ele>60.5</ele>
      </trkpt>
      <trkpt lat="41.037488" lon="0.930927">
        <ele>59.75</ele>
      </trkpt>
      <trkpt lat="41.037498" lon="0.931448">
        <ele>58.5</ele>
      </trkpt>
      <trkpt lat="41.037551" lon="0.931801">
        <ele>58</ele>
      </trkpt>
      <trkpt lat="41.037551" lon="0.931943">
        <ele>57.75</ele>
      </trkpt>
      <trkpt lat="41.037493" lon="0.932534">
        <ele>56.75</ele>
      </trkpt>
      <trkpt lat="41.037517" lon="0.932817">
        <ele>55.75</ele>
      </trkpt>
      <trkpt lat="41.037513" lon="0.933197">
        <ele>54.5</ele>
      </trkpt>
      <trkpt lat="41.037561" lon="0.933525">
        <ele>53.25</ele>
      </trkpt>
      <trkpt lat="41.037464" lon="0.933962">
        <ele>51.5</ele>
      </trkpt>
      <trkpt lat="41.037435" lon="0.934682">
        <ele>50.25</ele>
      </trkpt>
      <trkpt lat="41.037357" lon="0.935107">
        <ele>49.75</ele>
      </trkpt>
      <trkpt lat="41.037309" lon="0.935576">
        <ele>49.25</ele>
      </trkpt>
      <trkpt lat="41.037396" lon="0.935711">
        <ele>49</ele>
      </trkpt>
      <trkpt lat="41.037423" lon="0.935887">
        <ele>48.75</ele>
      </trkpt>
      <trkpt lat="41.03743" lon="0.935917">
        <ele>48.75</ele>
      </trkpt>
      <trkpt lat="41.037372" lon="0.936084">
        <ele>48.75</ele>
      </trkpt>
      <trkpt lat="41.037265" lon="0.936521">
        <ele>48.5</ele>
      </trkpt>
      <trkpt lat="41.037265" lon="0.937023">
        <ele>48</ele>
      </trkpt>
      <trkpt lat="41.037231" lon="0.937981">
        <ele>46.75</ele>
      </trkpt>
      <trkpt lat="41.037221" lon="0.939004">
        <ele>46</ele>
      </trkpt>
      <trkpt lat="41.037265" lon="0.940406">
        <ele>44.75</ele>
      </trkpt>
      <trkpt lat="41.037285" lon="0.940796">
        <ele>43.75</ele>
      </trkpt>
      <trkpt lat="41.037314" lon="0.941319">
        <ele>43.75</ele>
      </trkpt>
      <trkpt lat="41.037454" lon="0.942592">
        <ele>42.5</ele>
      </trkpt>
      <trkpt lat="41.03745" lon="0.943209">
        <ele>41.25</ele>
      </trkpt>
      <trkpt lat="41.037522" lon="0.944097">
        <ele>41.75</ele>
      </trkpt>
      <trkpt lat="41.037658" lon="0.944814">
        <ele>41.5</ele>
      </trkpt>
      <trkpt lat="41.037781" lon="0.945451">
        <ele>41.25</ele>
      </trkpt>
      <trkpt lat="41.037886" lon="0.946042">
        <ele>41.25</ele>
      </trkpt>
      <trkpt lat="41.03824" lon="0.947832">
        <ele>40.25</ele>
      </trkpt>
      <trkpt lat="41.038672" lon="0.949622">
        <ele>41.25</ele>
      </trkpt>
      <trkpt lat="41.039288" lon="0.951395">
        <ele>42.25</ele>
      </trkpt>
      <trkpt lat="41.039288" lon="0.951395">
        <ele>42.583811500770594</ele>
      </trkpt>
      <trkpt lat="41.039513258736065" lon="0.9519109650083666">
        <ele>41.474661216396846</ele>
      </trkpt>
      <trkpt lat="41.039738517472124" lon="0.9524269300167333">
        <ele>40.26528952514672</ele>
      </trkpt>
      <trkpt lat="41.03996377620819" lon="0.9529428950250999">
        <ele>39.987608051916325</ele>
      </trkpt>
      <trkpt lat="41.040026199564636" lon="0.9530858784591487">
        <ele>39.806777161580044</ele>
      </trkpt>
      <trkpt lat="41.040089" lon="0.953238">
        <ele>39.8046867295639</ele>
      </trkpt>
      <trkpt lat="41.040089" lon="0.953238">
        <ele>40</ele>
      </trkpt>
      <trkpt lat="41.040085" lon="0.953264">
        <ele>40</ele>
      </trkpt>
      <trkpt lat="41.040259" lon="0.953662">
        <ele>40</ele>
      </trkpt>
      <trkpt lat="41.04102" lon="0.955356">
        <ele>41</ele>
      </trkpt>
      <trkpt lat="41.04102" lon="0.955356">
        <ele>41</ele>
      </trkpt>
      <trkpt lat="41.041921" lon="0.95688">
        <ele>39</ele>
      </trkpt>
      <trkpt lat="41.04207" lon="0.957201">
        <ele>38.75</ele>
      </trkpt>
      <trkpt lat="41.042414" lon="0.9577">
        <ele>38.25</ele>
      </trkpt>
      <trkpt lat="41.042627" lon="0.958033">
        <ele>37.75</ele>
      </trkpt>
      <trkpt lat="41.042753" lon="0.958415">
        <ele>37.25</ele>
      </trkpt>
      <trkpt lat="41.042874" lon="0.958581">
        <ele>37.5</ele>
      </trkpt>
      <trkpt lat="41.043055" lon="0.958704">
        <ele>38.25</ele>
      </trkpt>
      <trkpt lat="41.043208" lon="0.958827">
        <ele>38.75</ele>
      </trkpt>
      <trkpt lat="41.043389" lon="0.958957">
        <ele>39.5</ele>
      </trkpt>
      <trkpt lat="41.043503" lon="0.95911">
        <ele>40</ele>
      </trkpt>
      <trkpt lat="41.043503" lon="0.95911">
        <ele>42.36</ele>
      </trkpt>
      <trkpt lat="41.043395" lon="0.959225">
        <ele>39.99</ele>
      </trkpt>
      <trkpt lat="41.042978" lon="0.959673">
        <ele>40.29</ele>
      </trkpt>
      <trkpt lat="41.042842" lon="0.959837">
        <ele>42.05</ele>
      </trkpt>
      <trkpt lat="41.042853" lon="0.959891">
        <ele>42.41</ele>
      </trkpt>
      <trkpt lat="41.042864" lon="0.95994">
        <ele>42.74</ele>
      </trkpt>
      <trkpt lat="41.042961" lon="0.959999">
        <ele>42.05</ele>
      </trkpt>
      <trkpt lat="41.043285" lon="0.960141">
        <ele>38.96</ele>
      </trkpt>
      <trkpt lat="41.04339" lon="0.960245">
        <ele>38.72</ele>
      </trkpt>
      <trkpt lat="41.044043" lon="0.961257">
        <ele>38</ele>
      </trkpt>
      <trkpt lat="41.044559" lon="0.962128">
        <ele>38.97</ele>
      </trkpt>
      <trkpt lat="41.044681" lon="0.962445">
        <ele>39.95</ele>
      </trkpt>
      <trkpt lat="41.044875" lon="0.962686">
        <ele>40</ele>
      </trkpt>
      <trkpt lat="41.045316" lon="0.963416">
        <ele>38.94</ele>
      </trkpt>
      <trkpt lat="41.046679" lon="0.965932">
        <ele>38.56</ele>
      </trkpt>
      <trkpt lat="41.047513" lon="0.967884">
        <ele>37</ele>
      </trkpt>
      <trkpt lat="41.048706" lon="0.970921">
        <ele>37.22</ele>
      </trkpt>
      <trkpt lat="41.049131" lon="0.972133">
        <ele>37.45</ele>
      </trkpt>
      <trkpt lat="41.049782" lon="0.973946">
        <ele>37.78</ele>
      </trkpt>
      <trkpt lat="41.050074" lon="0.974665">
        <ele>37.19</ele>
      </trkpt>
      <trkpt lat="41.050078" lon="0.974697">
        <ele>37.11</ele>
      </trkpt>
      <trkpt lat="41.050078" lon="0.974697">
        <ele>37.11</ele>
      </trkpt>
      <trkpt lat="41.050078" lon="0.974697">
        <ele>37.11</ele>
      </trkpt>
      <trkpt lat="41.05012" lon="0.975014">
        <ele>36.32</ele>
      </trkpt>
      <trkpt lat="41.049912" lon="0.974633">
        <ele>37.46</ele>
      </trkpt>
      <trkpt lat="41.049654" lon="0.974353">
        <ele>41.47</ele>
      </trkpt>
      <trkpt lat="41.049651" lon="0.974356">
        <ele>41.44</ele>
      </trkpt>
      <trkpt lat="41.049651" lon="0.974356">
        <ele>41.44</ele>
      </trkpt>
      <trkpt lat="41.049467" lon="0.974504">
        <ele>39.84</ele>
      </trkpt>
      <trkpt lat="41.048587" lon="0.975275">
        <ele>36.17</ele>
      </trkpt>
      <trkpt lat="41.048587" lon="0.975275">
        <ele>36.17</ele>
      </trkpt>
      <trkpt lat="41.048328" lon="0.975489">
        <ele>35.43</ele>
      </trkpt>
      <trkpt lat="41.048163" lon="0.975589">
        <ele>34.53</ele>
      </trkpt>
      <trkpt lat="41.047552" lon="0.975582">
        <ele>31.2</ele>
      </trkpt>
      <trkpt lat="41.047517" lon="0.97561">
        <ele>30.78</ele>
      </trkpt>
      <trkpt lat="41.047574" lon="0.975695">
        <ele>30.29</ele>
      </trkpt>
      <trkpt lat="41.047574" lon="0.975695">
        <ele>30.29</ele>
      </trkpt>
      <trkpt lat="41.047601" lon="0.975734">
        <ele>30.06</ele>
      </trkpt>
      <trkpt lat="41.047752" lon="0.9758">
        <ele>30</ele>
      </trkpt>
      <trkpt lat="41.048155" lon="0.9758">
        <ele>31</ele>
      </trkpt>
      <trkpt lat="41.048432" lon="0.975699">
        <ele>32</ele>
      </trkpt>
      <trkpt lat="41.04861" lon="0.975668">
        <ele>32.19</ele>
      </trkpt>
      <trkpt lat="41.048796" lon="0.975731">
        <ele>32.94</ele>
      </trkpt>
      <trkpt lat="41.048885" lon="0.975945">
        <ele>32.88</ele>
      </trkpt>
      <trkpt lat="41.048885" lon="0.975945">
        <ele>32.88</ele>
      </trkpt>
      <trkpt lat="41.049042" lon="0.976324">
        <ele>32.78</ele>
      </trkpt>
      <trkpt lat="41.04927" lon="0.976731">
        <ele>32.78</ele>
      </trkpt>
      <trkpt lat="41.049297" lon="0.9769">
        <ele>32.19</ele>
      </trkpt>
      <trkpt lat="41.050778" lon="0.979787">
        <ele>33.24</ele>
      </trkpt>
      <trkpt lat="41.051255" lon="0.980559">
        <ele>32.99</ele>
      </trkpt>
      <trkpt lat="41.05166" lon="0.981417">
        <ele>31.96</ele>
      </trkpt>
      <trkpt lat="41.051974" lon="0.981856">
        <ele>34.17</ele>
      </trkpt>
      <trkpt lat="41.052132" lon="0.982075">
        <ele>33.77</ele>
      </trkpt>
      <trkpt lat="41.054429" lon="0.985873">
        <ele>33</ele>
      </trkpt>
      <trkpt lat="41.054899" lon="0.98674">
        <ele>31.94</ele>
      </trkpt>
      <trkpt lat="41.055212" lon="0.987318">
        <ele>29.34</ele>
      </trkpt>
      <trkpt lat="41.055354" lon="0.987527">
        <ele>24.93</ele>
      </trkpt>
      <trkpt lat="41.055379" lon="0.987766">
        <ele>21.57</ele>
      </trkpt>
      <trkpt lat="41.055378" lon="0.987963">
        <ele>20.13</ele>
      </trkpt>
      <trkpt lat="41.055452" lon="0.988107">
        <ele>21.43</ele>
      </trkpt>
      <trkpt lat="41.055455" lon="0.988102">
        <ele>21.61</ele>
      </trkpt>
      <trkpt lat="41.055455" lon="0.988102">
        <ele>20.298422590623932</ele>
      </trkpt>
      <trkpt lat="41.05560958860974" lon="0.9883434400571502">
        <ele>25.6283833492724</ele>
      </trkpt>
      <trkpt lat="41.055641" lon="0.988347">
        <ele>28.95</ele>
      </trkpt>
      <trkpt lat="41.055631" lon="0.988488">
        <ele>29.58</ele>
      </trkpt>
      <trkpt lat="41.055676" lon="0.988656">
        <ele>29.93</ele>
      </trkpt>
      <trkpt lat="41.055774" lon="0.98882">
        <ele>30</ele>
      </trkpt>
      <trkpt lat="41.055762" lon="0.988827">
        <ele>29.98</ele>
      </trkpt>
      <trkpt lat="41.055762" lon="0.988827">
        <ele>29.98</ele>
      </trkpt>
      <trkpt lat="41.055774" lon="0.98882">
        <ele>30</ele>
      </trkpt>
      <trkpt lat="41.056174" lon="0.989309">
        <ele>30.71</ele>
      </trkpt>
      <trkpt lat="41.056565" lon="0.989801">
        <ele>29.6</ele>
      </trkpt>
      <trkpt lat="41.056689" lon="0.990008">
        <ele>29.22</ele>
      </trkpt>
      <trkpt lat="41.056769" lon="0.990215">
        <ele>29.11</ele>
      </trkpt>
      <trkpt lat="41.056801" lon="0.990411">
        <ele>30.54</ele>
      </trkpt>
      <trkpt lat="41.056692" lon="0.990862">
        <ele>29.45</ele>
      </trkpt>
      <trkpt lat="41.056656" lon="0.991128">
        <ele>28.67</ele>
      </trkpt>
      <trkpt lat="41.056646" lon="0.992585">
        <ele>26.23</ele>
      </trkpt>
      <trkpt lat="41.056635" lon="0.993294">
        <ele>23.62</ele>
      </trkpt>
      <trkpt lat="41.056603" lon="0.993945">
        <ele>24</ele>
      </trkpt>
      <trkpt lat="41.056491" lon="0.994179">
        <ele>23.21</ele>
      </trkpt>
      <trkpt lat="41.056368" lon="0.99461">
        <ele>23.26</ele>
      </trkpt>
      <trkpt lat="41.056261" lon="0.994759">
        <ele>22.76</ele>
      </trkpt>
      <trkpt lat="41.055909" lon="0.995">
        <ele>22</ele>
      </trkpt>
      <trkpt lat="41.055669" lon="0.995184">
        <ele>21.83</ele>
      </trkpt>
      <trkpt lat="41.055434" lon="0.995276">
        <ele>21</ele>
      </trkpt>
      <trkpt lat="41.055354" lon="0.995389">
        <ele>21</ele>
      </trkpt>
      <trkpt lat="41.055348" lon="0.995516">
        <ele>21</ele>
      </trkpt>
      <trkpt lat="41.055376" lon="0.995624">
        <ele>21</ele>
      </trkpt>
      <trkpt lat="41.054754" lon="0.99611">
        <ele>19.92</ele>
      </trkpt>
      <trkpt lat="41.054796" lon="0.99621">
        <ele>19.99</ele>
      </trkpt>
      <trkpt lat="41.054098" lon="0.996762">
        <ele>18</ele>
      </trkpt>
      <trkpt lat="41.054043" lon="0.996846">
        <ele>18</ele>
      </trkpt>
      <trkpt lat="41.053924" lon="0.996969">
        <ele>17.75</ele>
      </trkpt>
      <trkpt lat="41.053823" lon="0.99701">
        <ele>17.34</ele>
      </trkpt>
      <trkpt lat="41.052114" lon="0.998307">
        <ele>15</ele>
      </trkpt>
      <trkpt lat="41.052005" lon="0.998352">
        <ele>15.2</ele>
      </trkpt>
      <trkpt lat="41.050856" lon="0.999284">
        <ele>14</ele>
      </trkpt>
      <trkpt lat="41.050716" lon="0.999367">
        <ele>14</ele>
      </trkpt>
      <trkpt lat="41.050629" lon="0.999486">
        <ele>13.92</ele>
      </trkpt>
      <trkpt lat="41.050629" lon="0.999486">
        <ele>13.92</ele>
      </trkpt>
      <trkpt lat="41.050588" lon="0.999588">
        <ele>13.24</ele>
      </trkpt>
      <trkpt lat="41.050775" lon="0.999889">
        <ele>11.83</ele>
      </trkpt>
      <trkpt lat="41.050865" lon="1.000071">
        <ele>11.45</ele>
      </trkpt>
      <trkpt lat="41.050876" lon="1.000283">
        <ele>10.94</ele>
      </trkpt>
      <trkpt lat="41.050834" lon="1.0004">
        <ele>10.81</ele>
      </trkpt>
      <trkpt lat="41.050753" lon="1.000531">
        <ele>10.13</ele>
      </trkpt>
      <trkpt lat="41.050494" lon="1.000856">
        <ele>12.88</ele>
      </trkpt>
      <trkpt lat="41.050223" lon="1.001138">
        <ele>8.96</ele>
      </trkpt>
      <trkpt lat="41.050058" lon="1.001334">
        <ele>8</ele>
      </trkpt>
      <trkpt lat="41.04982" lon="1.001609">
        <ele>8.98</ele>
      </trkpt>
      <trkpt lat="41.049639" lon="1.001728">
        <ele>8.4</ele>
      </trkpt>
      <trkpt lat="41.049639" lon="1.001728">
        <ele>8.4</ele>
      </trkpt>
      <trkpt lat="41.049644" lon="1.001721">
        <ele>8.42</ele>
      </trkpt>
      <trkpt lat="41.050793" lon="1.004156">
        <ele>11.85</ele>
      </trkpt>
      <trkpt lat="41.053086" lon="1.009127">
        <ele>13.85</ele>
      </trkpt>
      <trkpt lat="41.052993" lon="1.009242">
        <ele>13.05</ele>
      </trkpt>
      <trkpt lat="41.054134" lon="1.011726">
        <ele>13.04</ele>
      </trkpt>
      <trkpt lat="41.054248" lon="1.011757">
        <ele>13.91</ele>
      </trkpt>
      <trkpt lat="41.054797" lon="1.012943">
        <ele>13.75</ele>
      </trkpt>
      <trkpt lat="41.05498" lon="1.013429">
        <ele>13.56</ele>
      </trkpt>
      <trkpt lat="41.055284" lon="1.01409">
        <ele>15</ele>
      </trkpt>
      <trkpt lat="41.055741" lon="1.015082">
        <ele>14</ele>
      </trkpt>
      <trkpt lat="41.055889" lon="1.015437">
        <ele>13.89</ele>
      </trkpt>
      <trkpt lat="41.056093" lon="1.015885">
        <ele>13.57</ele>
      </trkpt>
      <trkpt lat="41.056404" lon="1.016629">
        <ele>11.6</ele>
      </trkpt>
      <trkpt lat="41.056404" lon="1.016629">
        <ele>11.6</ele>
      </trkpt>
      <trkpt lat="41.05641" lon="1.016642">
        <ele>11.57</ele>
      </trkpt>
      <trkpt lat="41.056498" lon="1.016714">
        <ele>10.97</ele>
      </trkpt>
      <trkpt lat="41.056645" lon="1.016704">
        <ele>10.47</ele>
      </trkpt>
      <trkpt lat="41.056645" lon="1.016704">
        <ele>10.47</ele>
      </trkpt>
      <trkpt lat="41.056944" lon="1.017381">
        <ele>10.64</ele>
      </trkpt>
      <trkpt lat="41.056944" lon="1.017381">
        <ele>10.64</ele>
      </trkpt>
      <trkpt lat="41.056818" lon="1.017567">
        <ele>9.78</ele>
      </trkpt>
      <trkpt lat="41.056688" lon="1.017741">
        <ele>10</ele>
      </trkpt>
      <trkpt lat="41.056672" lon="1.017819">
        <ele>10</ele>
      </trkpt>
      <trkpt lat="41.056603" lon="1.018052">
        <ele>10</ele>
      </trkpt>
      <trkpt lat="41.055088" lon="1.019984">
        <ele>7</ele>
      </trkpt>
      <trkpt lat="41.052664" lon="1.023114">
        <ele>2.7</ele>
      </trkpt>
      <trkpt lat="41.052632" lon="1.023114">
        <ele>2.46</ele>
      </trkpt>
      <trkpt lat="41.052603" lon="1.023133">
        <ele>2.23</ele>
      </trkpt>
      <trkpt lat="41.052576" lon="1.02318">
        <ele>2.03</ele>
      </trkpt>
      <trkpt lat="41.052574" lon="1.023238">
        <ele>2.01</ele>
      </trkpt>
      <trkpt lat="41.052581" lon="1.023278">
        <ele>2.06</ele>
      </trkpt>
      <trkpt lat="41.052577" lon="1.023279">
        <ele>4.75</ele>
      </trkpt>
      <trkpt lat="41.052588" lon="1.023314">
        <ele>4.75</ele>
      </trkpt>
      <trkpt lat="41.052657" lon="1.023375">
        <ele>4.75</ele>
      </trkpt>
      <trkpt lat="41.052851" lon="1.023632">
        <ele>4.75</ele>
      </trkpt>
      <trkpt lat="41.052978" lon="1.023823">
        <ele>4.75</ele>
      </trkpt>
      <trkpt lat="41.053032" lon="1.023944">
        <ele>4.75</ele>
      </trkpt>
      <trkpt lat="41.05314" lon="1.02404">
        <ele>4.75</ele>
      </trkpt>
      <trkpt lat="41.05335" lon="1.024347">
        <ele>4.75</ele>
      </trkpt>
      <trkpt lat="41.053471" lon="1.024511">
        <ele>4.75</ele>
      </trkpt>
      <trkpt lat="41.053597" lon="1.024659">
        <ele>5.25</ele>
      </trkpt>
      <trkpt lat="41.053677" lon="1.024729">
        <ele>5.75</ele>
      </trkpt>
      <trkpt lat="41.05374" lon="1.024785">
        <ele>5.75</ele>
      </trkpt>
      <trkpt lat="41.053883" lon="1.024963">
        <ele>5.75</ele>
      </trkpt>
      <trkpt lat="41.054045" lon="1.025237">
        <ele>5.75</ele>
      </trkpt>
      <trkpt lat="41.054248" lon="1.025563">
        <ele>6</ele>
      </trkpt>
      <trkpt lat="41.054421" lon="1.025816">
        <ele>6</ele>
      </trkpt>
      <trkpt lat="41.054464" lon="1.025891">
        <ele>5.75</ele>
      </trkpt>
      <trkpt lat="41.054519" lon="1.025986">
        <ele>5.75</ele>
      </trkpt>
      <trkpt lat="41.054661" lon="1.026261">
        <ele>5.75</ele>
      </trkpt>
      <trkpt lat="41.054743" lon="1.026432">
        <ele>5.75</ele>
      </trkpt>
      <trkpt lat="41.054815" lon="1.026584">
        <ele>5.75</ele>
      </trkpt>
      <trkpt lat="41.054899" lon="1.026793">
        <ele>5.75</ele>
      </trkpt>
      <trkpt lat="41.05496" lon="1.026963">
        <ele>5.75</ele>
      </trkpt>
      <trkpt lat="41.055237" lon="1.027626">
        <ele>5.75</ele>
      </trkpt>
      <trkpt lat="41.055327" lon="1.027842">
        <ele>6</ele>
      </trkpt>
      <trkpt lat="41.055385" lon="1.027939">
        <ele>6</ele>
      </trkpt>
      <trkpt lat="41.055541" lon="1.028095">
        <ele>6</ele>
      </trkpt>
      <trkpt lat="41.055591" lon="1.028167">
        <ele>6</ele>
      </trkpt>
      <trkpt lat="41.055777" lon="1.028416">
        <ele>6</ele>
      </trkpt>
      <trkpt lat="41.056004" lon="1.028741">
        <ele>6.25</ele>
      </trkpt>
      <trkpt lat="41.056112" lon="1.028892">
        <ele>6.25</ele>
      </trkpt>
      <trkpt lat="41.05623" lon="1.029114">
        <ele>6</ele>
      </trkpt>
      <trkpt lat="41.056366" lon="1.029398">
        <ele>5.75</ele>
      </trkpt>
      <trkpt lat="41.056543" lon="1.029733">
        <ele>5.5</ele>
      </trkpt>
      <trkpt lat="41.056601" lon="1.02983">
        <ele>5.5</ele>
      </trkpt>
      <trkpt lat="41.056968" lon="1.03035">
        <ele>5.25</ele>
      </trkpt>
      <trkpt lat="41.057031" lon="1.030439">
        <ele>5.25</ele>
      </trkpt>
      <trkpt lat="41.057135" lon="1.030649">
        <ele>5</ele>
      </trkpt>
      <trkpt lat="41.057278" lon="1.030967">
        <ele>4.75</ele>
      </trkpt>
      <trkpt lat="41.057344" lon="1.031191">
        <ele>4.25</ele>
      </trkpt>
      <trkpt lat="41.057354" lon="1.03122">
        <ele>4</ele>
      </trkpt>
      <trkpt lat="41.057388" lon="1.031375">
        <ele>3.75</ele>
      </trkpt>
      <trkpt lat="41.057414" lon="1.031493">
        <ele>3.5</ele>
      </trkpt>
      <trkpt lat="41.057433" lon="1.031641">
        <ele>3.75</ele>
      </trkpt>
      <trkpt lat="41.057461" lon="1.031848">
        <ele>4</ele>
      </trkpt>
      <trkpt lat="41.057474" lon="1.032264">
        <ele>5</ele>
      </trkpt>
      <trkpt lat="41.057479" lon="1.032378">
        <ele>5</ele>
      </trkpt>
      <trkpt lat="41.057519" lon="1.032512">
        <ele>5.5</ele>
      </trkpt>
      <trkpt lat="41.057585" lon="1.032701">
        <ele>5.5</ele>
      </trkpt>
      <trkpt lat="41.057652" lon="1.03288">
        <ele>6</ele>
      </trkpt>
      <trkpt lat="41.057738" lon="1.033076">
        <ele>6.25</ele>
      </trkpt>
      <trkpt lat="41.057782" lon="1.033224">
        <ele>6</ele>
      </trkpt>
      <trkpt lat="41.057994" lon="1.033799">
        <ele>5.5</ele>
      </trkpt>
      <trkpt lat="41.05801" lon="1.033849">
        <ele>5.5</ele>
      </trkpt>
      <trkpt lat="41.058088" lon="1.033877">
        <ele>5.25</ele>
      </trkpt>
      <trkpt lat="41.058139" lon="1.03392">
        <ele>5.25</ele>
      </trkpt>
      <trkpt lat="41.058247" lon="1.034134">
        <ele>5</ele>
      </trkpt>
      <trkpt lat="41.058315" lon="1.034303">
        <ele>5</ele>
      </trkpt>
      <trkpt lat="41.058526" lon="1.034905">
        <ele>4.25</ele>
      </trkpt>
      <trkpt lat="41.058669" lon="1.035435">
        <ele>4.5</ele>
      </trkpt>
      <trkpt lat="41.058666" lon="1.035452">
        <ele>4.5</ele>
      </trkpt>
      <trkpt lat="41.058642" lon="1.035515">
        <ele>4.25</ele>
      </trkpt>
      <trkpt lat="41.058542" lon="1.035716">
        <ele>4</ele>
      </trkpt>
      <trkpt lat="41.058916" lon="1.037067">
        <ele>3.5</ele>
      </trkpt>
      <trkpt lat="41.059144" lon="1.037865">
        <ele>3</ele>
      </trkpt>
      <trkpt lat="41.05915" lon="1.037971">
        <ele>3</ele>
      </trkpt>
      <trkpt lat="41.059236" lon="1.038293">
        <ele>2.75</ele>
      </trkpt>
      <trkpt lat="41.059276" lon="1.038321">
        <ele>2.75</ele>
      </trkpt>
      <trkpt lat="41.059381" lon="1.038372">
        <ele>3</ele>
      </trkpt>
      <trkpt lat="41.059444" lon="1.038376">
        <ele>3</ele>
      </trkpt>
      <trkpt lat="41.059487" lon="1.038398">
        <ele>3.25</ele>
      </trkpt>
      <trkpt lat="41.05953" lon="1.038439">
        <ele>3.25</ele>
      </trkpt>
      <trkpt lat="41.05969" lon="1.038824">
        <ele>4</ele>
      </trkpt>
      <trkpt lat="41.059812" lon="1.039136">
        <ele>4.75</ele>
      </trkpt>
      <trkpt lat="41.059925" lon="1.039184">
        <ele>5</ele>
      </trkpt>
      <trkpt lat="41.060176" lon="1.039313">
        <ele>5.75</ele>
      </trkpt>
      <trkpt lat="41.060341" lon="1.039428">
        <ele>5.75</ele>
      </trkpt>
      <trkpt lat="41.060494" lon="1.039554">
        <ele>6.25</ele>
      </trkpt>
      <trkpt lat="41.06079" lon="1.039871">
        <ele>7</ele>
      </trkpt>
      <trkpt lat="41.061003" lon="1.040123">
        <ele>7.75</ele>
      </trkpt>
      <trkpt lat="41.061165" lon="1.040356">
        <ele>8.25</ele>
      </trkpt>
      <trkpt lat="41.061296" lon="1.040567">
        <ele>8.5</ele>
      </trkpt>
      <trkpt lat="41.061427" lon="1.04081">
        <ele>8.25</ele>
      </trkpt>
      <trkpt lat="41.061559" lon="1.041183">
        <ele>7</ele>
      </trkpt>
      <trkpt lat="41.061583" lon="1.041269">
        <ele>6.75</ele>
      </trkpt>
      <trkpt lat="41.061603" lon="1.041339">
        <ele>6.5</ele>
      </trkpt>
      <trkpt lat="41.061664" lon="1.04163">
        <ele>5</ele>
      </trkpt>
      <trkpt lat="41.061704" lon="1.041922">
        <ele>5.5</ele>
      </trkpt>
      <trkpt lat="41.061725" lon="1.04219">
        <ele>5.75</ele>
      </trkpt>
      <trkpt lat="41.061721" lon="1.042426">
        <ele>6</ele>
      </trkpt>
      <trkpt lat="41.061691" lon="1.042681">
        <ele>6</ele>
      </trkpt>
      <trkpt lat="41.061649" lon="1.042869">
        <ele>6</ele>
      </trkpt>
      <trkpt lat="41.061585" lon="1.043152">
        <ele>6</ele>
      </trkpt>
      <trkpt lat="41.061544" lon="1.043284">
        <ele>6</ele>
      </trkpt>
      <trkpt lat="41.061496" lon="1.043451">
        <ele>6</ele>
      </trkpt>
      <trkpt lat="41.061613" lon="1.043612">
        <ele>6</ele>
      </trkpt>
      <trkpt lat="41.062014" lon="1.044136">
        <ele>5.5</ele>
      </trkpt>
      <trkpt lat="41.062276" lon="1.044487">
        <ele>5</ele>
      </trkpt>
      <trkpt lat="41.062312" lon="1.044534">
        <ele>5</ele>
      </trkpt>
      <trkpt lat="41.062357" lon="1.044553">
        <ele>5</ele>
      </trkpt>
      <trkpt lat="41.062494" lon="1.044571">
        <ele>5</ele>
      </trkpt>
      <trkpt lat="41.062554" lon="1.044591">
        <ele>5</ele>
      </trkpt>
      <trkpt lat="41.062612" lon="1.044628">
        <ele>5</ele>
      </trkpt>
      <trkpt lat="41.062664" lon="1.044672">
        <ele>4.75</ele>
      </trkpt>
      <trkpt lat="41.062903" lon="1.045074">
        <ele>4.75</ele>
      </trkpt>
      <trkpt lat="41.063048" lon="1.045331">
        <ele>4.75</ele>
      </trkpt>
      <trkpt lat="41.063105" lon="1.045406">
        <ele>4.75</ele>
      </trkpt>
      <trkpt lat="41.063288" lon="1.045732">
        <ele>4.75</ele>
      </trkpt>
      <trkpt lat="41.063376" lon="1.045912">
        <ele>4.5</ele>
      </trkpt>
      <trkpt lat="41.063426" lon="1.046171">
        <ele>4.5</ele>
      </trkpt>
      <trkpt lat="41.06343" lon="1.0463">
        <ele>4.5</ele>
      </trkpt>
      <trkpt lat="41.063395" lon="1.046529">
        <ele>4.5</ele>
      </trkpt>
      <trkpt lat="41.063405" lon="1.046592">
        <ele>4.5</ele>
      </trkpt>
      <trkpt lat="41.063443" lon="1.046657">
        <ele>4.5</ele>
      </trkpt>
      <trkpt lat="41.063488" lon="1.046698">
        <ele>4.5</ele>
      </trkpt>
      <trkpt lat="41.06358" lon="1.046996">
        <ele>4.5</ele>
      </trkpt>
      <trkpt lat="41.063779" lon="1.047587">
        <ele>4.25</ele>
      </trkpt>
      <trkpt lat="41.063816" lon="1.047688">
        <ele>4.25</ele>
      </trkpt>
      <trkpt lat="41.063852" lon="1.047788">
        <ele>4.25</ele>
      </trkpt>
      <trkpt lat="41.063871" lon="1.047868">
        <ele>4.25</ele>
      </trkpt>
      <trkpt lat="41.064011" lon="1.048267">
        <ele>4.25</ele>
      </trkpt>
      <trkpt lat="41.064057" lon="1.048396">
        <ele>4.25</ele>
      </trkpt>
      <trkpt lat="41.064247" lon="1.048855">
        <ele>4</ele>
      </trkpt>
      <trkpt lat="41.064283" lon="1.048901">
        <ele>4.25</ele>
      </trkpt>
      <trkpt lat="41.064299" lon="1.048934">
        <ele>4</ele>
      </trkpt>
      <trkpt lat="41.064352" lon="1.049082">
        <ele>4</ele>
      </trkpt>
      <trkpt lat="41.06447" lon="1.049441">
        <ele>4</ele>
      </trkpt>
      <trkpt lat="41.064591" lon="1.049885">
        <ele>4.25</ele>
      </trkpt>
      <trkpt lat="41.064628" lon="1.050022">
        <ele>4.25</ele>
      </trkpt>
      <trkpt lat="41.06472" lon="1.050465">
        <ele>4.5</ele>
      </trkpt>
      <trkpt lat="41.064806" lon="1.050874">
        <ele>4.75</ele>
      </trkpt>
      <trkpt lat="41.064823" lon="1.050965">
        <ele>4.75</ele>
      </trkpt>
      <trkpt lat="41.064813" lon="1.051346">
        <ele>4.75</ele>
      </trkpt>
      <trkpt lat="41.064805" lon="1.051689">
        <ele>5</ele>
      </trkpt>
      <trkpt lat="41.064803" lon="1.051794">
        <ele>5</ele>
      </trkpt>
      <trkpt lat="41.0648" lon="1.052075">
        <ele>5</ele>
      </trkpt>
      <trkpt lat="41.064768" lon="1.052917">
        <ele>5.5</ele>
      </trkpt>
      <trkpt lat="41.064756" lon="1.052935">
        <ele>5.5</ele>
      </trkpt>
      <trkpt lat="41.064584" lon="1.053344">
        <ele>5.75</ele>
      </trkpt>
      <trkpt lat="41.064448" lon="1.053789">
        <ele>5.75</ele>
      </trkpt>
      <trkpt lat="41.064431" lon="1.053841">
        <ele>5.75</ele>
      </trkpt>
      <trkpt lat="41.06432" lon="1.053942">
        <ele>5.75</ele>
      </trkpt>
      <trkpt lat="41.064264" lon="1.054024">
        <ele>5.75</ele>
      </trkpt>
      <trkpt lat="41.064246" lon="1.054084">
        <ele>5.75</ele>
      </trkpt>
      <trkpt lat="41.064235" lon="1.054164">
        <ele>5.75</ele>
      </trkpt>
      <trkpt lat="41.064234" lon="1.054244">
        <ele>5.75</ele>
      </trkpt>
      <trkpt lat="41.06425" lon="1.054477">
        <ele>5.75</ele>
      </trkpt>
      <trkpt lat="41.064282" lon="1.054854">
        <ele>5.75</ele>
      </trkpt>
      <trkpt lat="41.064295" lon="1.05486">
        <ele>0</ele>
      </trkpt>
      <trkpt lat="41.06434265158188" lon="1.054879824854595">
        <ele>0</ele>
      </trkpt>
      <trkpt lat="41.06434265158188" lon="1.054879824854595">
        <ele>0</ele>
      </trkpt>
      <trkpt lat="41.064569" lon="1.054966">
        <ele>4</ele>
      </trkpt>
      <trkpt lat="41.064725" lon="1.055027">
        <ele>4</ele>
      </trkpt>
      <trkpt lat="41.065162" lon="1.055097">
        <ele>4</ele>
      </trkpt>
      <trkpt lat="41.06519" lon="1.055096">
        <ele>4</ele>
      </trkpt>
      <trkpt lat="41.065269" lon="1.055094">
        <ele>4.25</ele>
      </trkpt>
      <trkpt lat="41.065425" lon="1.055089">
        <ele>4.75</ele>
      </trkpt>
      <trkpt lat="41.06588" lon="1.055171">
        <ele>5.5</ele>
      </trkpt>
      <trkpt lat="41.066102" lon="1.055212">
        <ele>6</ele>
      </trkpt>
      <trkpt lat="41.066889" lon="1.055357">
        <ele>8.5</ele>
      </trkpt>
      <trkpt lat="41.06694" lon="1.055347">
        <ele>8.75</ele>
      </trkpt>
      <trkpt lat="41.067011" lon="1.055247">
        <ele>9.75</ele>
      </trkpt>
      <trkpt lat="41.067066" lon="1.055253">
        <ele>10</ele>
      </trkpt>
      <trkpt lat="41.067118" lon="1.055258">
        <ele>10.25</ele>
      </trkpt>
      <trkpt lat="41.067164" lon="1.055336">
        <ele>10</ele>
      </trkpt>
      <trkpt lat="41.067259" lon="1.055384">
        <ele>10.25</ele>
      </trkpt>
      <trkpt lat="41.068009" lon="1.055518">
        <ele>11</ele>
      </trkpt>
      <trkpt lat="41.068483" lon="1.055601">
        <ele>11.5</ele>
      </trkpt>
      <trkpt lat="41.068531" lon="1.055553">
        <ele>11.5</ele>
      </trkpt>
      <trkpt lat="41.068528" lon="1.05546">
        <ele>11.75</ele>
      </trkpt>
      <trkpt lat="41.068592" lon="1.055452">
        <ele>11.75</ele>
      </trkpt>
      <trkpt lat="41.068665" lon="1.055454">
        <ele>12</ele>
      </trkpt>
      <trkpt lat="41.068681" lon="1.055532">
        <ele>11.75</ele>
      </trkpt>
      <trkpt lat="41.068736" lon="1.055588">
        <ele>11.75</ele>
      </trkpt>
      <trkpt lat="41.068774" lon="1.055609">
        <ele>11.75</ele>
      </trkpt>
      <trkpt lat="41.068773" lon="1.055608">
        <ele>11.75</ele>
      </trkpt>
      <trkpt lat="41.068837" lon="1.055644">
        <ele>11.75</ele>
      </trkpt>
      <trkpt lat="41.068978" lon="1.055655">
        <ele>12</ele>
      </trkpt>
      <trkpt lat="41.068986" lon="1.055612">
        <ele>12.25</ele>
      </trkpt>
      <trkpt lat="41.069044" lon="1.055609">
        <ele>12.25</ele>
      </trkpt>
      <trkpt lat="41.069074" lon="1.055608">
        <ele>12.25</ele>
      </trkpt>
      <trkpt lat="41.069098" lon="1.055607">
        <ele>12.25</ele>
      </trkpt>
      <trkpt lat="41.069138" lon="1.055695">
        <ele>12.25</ele>
      </trkpt>
      <trkpt lat="41.069184" lon="1.055719">
        <ele>12.25</ele>
      </trkpt>
      <trkpt lat="41.069294" lon="1.055725">
        <ele>12.25</ele>
      </trkpt>
      <trkpt lat="41.069399" lon="1.055698">
        <ele>12.5</ele>
      </trkpt>
      <trkpt lat="41.069492" lon="1.055671">
        <ele>12.75</ele>
      </trkpt>
      <trkpt lat="41.069539" lon="1.055633">
        <ele>12.75</ele>
      </trkpt>
      <trkpt lat="41.069564" lon="1.055585">
        <ele>13</ele>
      </trkpt>
      <trkpt lat="41.069577" lon="1.055528">
        <ele>13</ele>
      </trkpt>
      <trkpt lat="41.069574" lon="1.055474">
        <ele>13.25</ele>
      </trkpt>
      <trkpt lat="41.069617" lon="1.05547">
        <ele>13.25</ele>
      </trkpt>
      <trkpt lat="41.069618" lon="1.05555">
        <ele>13</ele>
      </trkpt>
      <trkpt lat="41.069633" lon="1.055639">
        <ele>13</ele>
      </trkpt>
      <trkpt lat="41.069664177649884" lon="1.0556401742572348">
        <ele>12.608889177348988</ele>
      </trkpt>
      <trkpt lat="41.07011335200993" lon="1.0556124596366552">
        <ele>13.46761930906311</ele>
      </trkpt>
      <trkpt lat="41.07056252636998" lon="1.0555847450160754">
        <ele>14.75270836581551</ele>
      </trkpt>
      <trkpt lat="41.070836631887744" lon="1.0555678323623283">
        <ele>15.738046090818223</ele>
      </trkpt>
      <trkpt lat="41.070836631887744" lon="1.0555678323623283">
        <ele>15.738046090818223</ele>
      </trkpt>
      <trkpt lat="41.07127649607498" lon="1.0554440109842154">
        <ele>16.4725372512373</ele>
      </trkpt>
      <trkpt lat="41.07171636026222" lon="1.0553201896061026">
        <ele>17.240042272350227</ele>
      </trkpt>
      <trkpt lat="41.07215622444946" lon="1.0551963682279897">
        <ele>16.908383445535847</ele>
      </trkpt>
      <trkpt lat="41.072257" lon="1.055168">
        <ele>16.53461255926258</ele>
      </trkpt>
      <trkpt lat="41.072257" lon="1.055168">
        <ele>17</ele>
      </trkpt>
      <trkpt lat="41.072257" lon="1.055168">
        <ele>16.53461255926258</ele>
      </trkpt>
    </trkseg>
  </trk>
</gpx>
